NORAD_CAT_ID,OBJECT_NAME,OBJECT_TYPE,EPOCH,MEAN_MOTION,ECCENTRICITY,INCLINATION,RA_OF_ASC_NODE,ARG_OF_PERICENTER,MEAN_ANOMALY,BSTAR,MEAN_MOTION_DOT,MEAN_MOTION_DDOT,TLE_LINE0,TLE_LINE1,TLE_LINE2,SEMIMAJOR_AXIS,PERIOD,APOGEE,PERIGEE,DECAYED
53786.0,STARLINK-4631,PAYLOAD,2022-12-18 22:00:00,15.27482521,0.0002016,53.2173,147.9513,33.8773,181.7036,-0.0166639999999999,-0.00429107,0.0,0 STARLINK-4631,1 53786U 22111P   22352.91667824 -.00429107  00000-0 -16664-1 0  9992,2 53786  53.2173 147.9513 0002016  33.8773 181.7036 15.27482521  1309,6861.478,94.273,484.726,481.96,0.0
53786.0,STARLINK-4631,PAYLOAD,2022-12-19 10:00:00,15.27029172,0.0001823,53.2176,145.6401,37.8302,48.3363,-0.017075,-0.00433382,0.0,0 STARLINK-4631,1 53786U 22111P   22353.41667824 -.00433382  00000-0 -17075-1 0  9995,2 53786  53.2176 145.6401 0001823  37.8302  48.3363 15.27029172  1300,6862.8359999999975,94.301,485.952,483.45,0.0
53786.0,STARLINK-4631,PAYLOAD,2022-12-19 16:00:00,15.26802487,0.0001864,53.2175,144.4879,35.9446,345.2052,-0.0172879999999999,-0.00435638,0.0,0 STARLINK-4631,1 53786U 22111P   22353.66667824 -.00435638  00000-0 -17288-1 0  9994,2 53786  53.2175 144.4879 0001864  35.9446 345.2052 15.26802487 15472,6863.515,94.315,486.66,484.101,0.0
53786.0,STARLINK-4631,PAYLOAD,2022-12-19 22:00:00,15.26573401,0.0001858,53.2172,143.3347,35.5544,280.3745,-0.017284,-0.00432685,0.0,0 STARLINK-4631,1 53786U 22111P   22353.91667824 -.00432685  00000-0 -17284-1 0  9997,2 53786  53.2172 143.3347 0001858  35.5544 280.3745 15.26573401  1301,6864.2019999999975,94.329,487.342,484.792,0.0
53786.0,STARLINK-4631,PAYLOAD,2022-12-20 14:00:01,15.25958848,0.0001691,53.2169,140.2591,41.7313,339.2763,-0.017233,-0.00423928,0.0,0 STARLINK-4631,1 53786U 22111P   22354.58334491 -.00423928  00000-0 -17233-1 0  9996,2 53786  53.2169 140.2591 0001691  41.7313 339.2763 15.25958848  1307,6866.045,94.367,489.071,486.749,0.0
53786.0,STARLINK-4631,PAYLOAD,2022-12-21 00:00:00,15.25586401,0.0001944,53.2168,138.3401,35.7263,115.2069,-0.017869,-0.00434067,0.0,0 STARLINK-4631,1 53786U 22111P   22355.00001157 -.00434067  00000-0 -17869-1 0  9995,2 53786  53.2168 138.3401 0001944  35.7263 115.2069 15.25586401 15670,6867.1619999999975,94.39,490.362,487.692,0.0
53786.0,STARLINK-4631,PAYLOAD,2022-12-21 14:00:01,15.25054673,0.0001766,53.2175,135.6543,41.5489,74.3278,-0.018183,-0.00434619,0.0,0 STARLINK-4631,1 53786U 22111P   22355.58334491 -.00434619  00000-0 -18183-1 0  9991,2 53786  53.2175 135.6543 0001766  41.5489  74.3278 15.25054673  1305,6868.7580000000025,94.423,491.836,489.41,0.0
53786.0,STARLINK-4631,PAYLOAD,2022-12-22 08:00:01,15.2437076,0.0001936,53.2174,132.2027,35.3182,239.5579,-0.018536,-0.00434082,0.0,0 STARLINK-4631,1 53786U 22111P   22356.33334491 -.00434082  00000-0 -18536-1 0  9991,2 53786  53.2174 132.2027 0001936  35.3182 239.5579 15.24370760 15877,6870.813,94.465,494.008,491.347,0.0
53786.0,STARLINK-4631,PAYLOAD,2022-12-22 14:00:01,15.24141619,0.0002083,53.2175,131.055,33.7764,173.6881,-0.018556,-0.00431723,0.0,0 STARLINK-4631,1 53786U 22111P   22356.58334491 -.00431723  00000-0 -18556-1 0  9999,2 53786  53.2175 131.0550 0002083  33.7764 173.6881 15.24141619  1304,6871.501,94.479,494.798,491.935,0.0
53786.0,STARLINK-4631,PAYLOAD,2022-12-22 22:00:00,15.23840916,0.0001853,53.2171,129.5237,38.97,198.292,-0.018955,-0.00436739,0.0,0 STARLINK-4631,1 53786U 22111P   22356.91667824 -.00436739  00000-0 -18955-1 0  9990,2 53786  53.2171 129.5237 0001853  38.9700 198.2920 15.23840916  1307,6872.405,94.498,495.544,492.997,0.0
53786.0,STARLINK-4631,PAYLOAD,2022-12-23 14:00:01,15.23228515,0.0001656,53.2169,126.4614,46.7853,248.9823,-0.018959,-0.00429336,0.0,0 STARLINK-4631,1 53786U 22111P   22357.58334491 -.00429336  00000-0 -18959-1 0  9994,2 53786  53.2169 126.4614 0001656  46.7853 248.9823 15.23228515  1306,6874.246999999999,94.536,497.25,494.974,0.0
53786.0,STARLINK-4631,PAYLOAD,2022-12-23 16:00:00,15.23157577,0.0001696,53.2172,126.0799,44.5303,348.4448,-0.019385,-0.00437568,0.0,0 STARLINK-4631,1 53786U 22111P   22357.66667824 -.00437568  00000-0 -19385-1 0  9992,2 53786  53.2172 126.0799 0001696  44.5303 348.4448 15.23157577 16089,6874.46,94.54,497.491,495.16,0.0
53786.0,STARLINK-4631,PAYLOAD,2022-12-23 22:00:01,15.22923648,0.0001821,53.2164,124.9323,36.9843,287.5508,-0.019077,-0.00428183,0.0,0 STARLINK-4631,1 53786U 22111P   22357.91668981 -.00428183  00000-0 -19077-1 0  9996,2 53786  53.2164 124.9323 0001821  36.9843 287.5508 15.22923648  1302,6875.1640000000025,94.555,498.281,495.777,0.0
53786.0,STARLINK-4631,PAYLOAD,2022-12-24 14:00:01,15.22317222,0.0001668,53.217,121.8751,42.3854,338.3982,-0.019492,-0.00429596,0.0,0 STARLINK-4631,1 53786U 22111P   22358.58334491 -.00429596  00000-0 -19492-1 0  9996,2 53786  53.2170 121.8751 0001668  42.3854 338.3982 15.22317222  1308,6876.99,94.593,500.002,497.708,0.0
53786.0,STARLINK-4631,PAYLOAD,2022-12-24 22:00:00,15.22016648,0.000183,53.2165,120.348,36.8467,11.5438,-0.01989,-0.00434219,0.0,0 STARLINK-4631,1 53786U 22111P   22358.91667824 -.00434219  00000-0 -19890-1 0  9992,2 53786  53.2165 120.3480 0001830  36.8467  11.5438 15.22016648 16270,6877.895,94.611,501.019,498.502,0.0
53786.0,STARLINK-4631,PAYLOAD,2022-12-25 14:00:01,15.21405703,0.0001771999999999,53.2171,117.2951,43.9294,58.585,-0.020044,-0.00429999,0.0,0 STARLINK-4631,1 53786U 22111P   22359.58334491 -.00429999  00000-0 -20044-1 0  9999,2 53786  53.2171 117.2951 0001772  43.9294  58.5850 15.21405703  1307,6879.736999999999,94.649,502.821,500.383,0.0
53786.0,STARLINK-4631,PAYLOAD,2022-12-26 00:00:00,15.21030361,0.0001932,53.217,115.3883,37.109,188.4883,-0.020599,-0.00436659,0.0,0 STARLINK-4631,1 53786U 22111P   22360.00001157 -.00436659  00000-0 -20599-1 0  9994,2 53786  53.2170 115.3883 0001932  37.1090 188.4883 15.21030361  1309,6880.868,94.673,504.06300000000016,501.404,0.0
53786.0,STARLINK-4631,PAYLOAD,2022-12-26 06:00:00,15.20788438,0.0001915,53.2169,114.244,34.8674,120.3141,-0.019737,-0.00416564,0.0,0 STARLINK-4631,1 53786U 22111P   22360.25001157 -.00416564  00000-0 -19737-1 0  9996,2 53786  53.2169 114.2440 0001915  34.8674 120.3141 15.20788438 16477,6881.598000000001,94.688,504.781,502.145,0.0
53786.0,STARLINK-4631,PAYLOAD,2022-12-26 14:00:01,15.20499636,0.0001706999999999,53.2169,112.7214,51.0898,129.8668,-0.020971,-0.00437595,0.0,0 STARLINK-4631,1 53786U 22111P   22360.58334491 -.00437595  00000-0 -20971-1 0  9991,2 53786  53.2169 112.7214 0001707  51.0898 129.8668 15.20499636  1300,6882.469,94.706,505.509,503.16,0.0
53786.0,STARLINK-4631,PAYLOAD,2022-12-27 00:00:00,15.20119277,0.0001803,53.2171,110.8173,39.0835,263.5897,-0.021206,-0.004376,0.0,0 STARLINK-4631,1 53786U 22111P   22361.00001157 -.00437600  00000-0 -21206-1 0  9998,2 53786  53.2171 110.8173 0001803  39.0835 263.5897 15.20119277  1300,6883.618,94.729,506.724,504.241,0.0
53786.0,STARLINK-4631,PAYLOAD,2022-12-27 08:00:01,15.19813891,0.0001779,53.2174,109.2944,40.0002,287.6986,-0.021171,-0.00433251,0.0,0 STARLINK-4631,1 53786U 22111P   22361.33335648 -.00433251  00000-0 -21171-1 0  9998,2 53786  53.2174 109.2944 0001779  40.0002 287.6986 15.19813891 16641,6884.54,94.748,507.629,505.18,0.0
53786.0,STARLINK-4631,PAYLOAD,2022-12-27 14:00:01,15.1957997,0.0001713,53.2171,108.1542,48.8331,207.2868,-0.020915,-0.00425544,0.0,0 STARLINK-4631,1 53786U 22111P   22361.58334491 -.00425544  00000-0 -20915-1 0  9991,2 53786  53.2171 108.1542 0001713  48.8331 207.2868 15.19579970  1300,6885.246,94.763,508.291,505.932,0.0
53786.0,STARLINK-4631,PAYLOAD,2022-12-27 22:00:00,15.19281464,0.0001796,53.2164,106.6329,38.5665,241.8746,-0.021558,-0.00434309,0.0,0 STARLINK-4631,1 53786U 22111P   22361.91667824 -.00434309  00000-0 -21558-1 0  9990,2 53786  53.2164 106.6329 0001796  38.5665 241.8746 15.19281464  1302,6886.148,94.782,509.25,506.776,0.0
53786.0,STARLINK-4631,PAYLOAD,2022-12-28 14:00:01,15.18671732,0.0001683,53.2171,103.5935,45.9756,282.0166,-0.02174,-0.00430497,0.0,0 STARLINK-4631,1 53786U 22111P   22362.58334491 -.00430497  00000-0 -21740-1 0  9992,2 53786  53.2171 103.5935 0001683  45.9756 282.0166 15.18671732  1300,6887.991,94.82,511.015,508.697,0.0
53786.0,STARLINK-4631,PAYLOAD,2022-12-28 16:00:00,15.18599402,0.0001733999999999,53.2175,103.2144,44.7183,19.1131,-0.022084,-0.00436061,0.0,0 STARLINK-4631,1 53786U 22111P   22362.66667824 -.00436061  00000-0 -22084-1 0  9995,2 53786  53.2175 103.2144 0001734  44.7183  19.1131 15.18599402 16840,6888.21,94.824,511.269,508.88,0.0
53786.0,STARLINK-4631,PAYLOAD,2022-12-28 22:00:00,15.18371789,0.0001839,53.2164,102.0739,37.945,313.2738,-0.022274,-0.00436877,0.0,0 STARLINK-4631,1 53786U 22111P   22362.91667824 -.00436877  00000-0 -22274-1 0  9999,2 53786  53.2164 102.0739 0001839  37.9450 313.2738 15.18371789  1304,6888.898,94.838,512.03,509.496,0.0
53786.0,STARLINK-4631,PAYLOAD,2022-12-29 14:00:01,15.1774815,0.0001771,53.2168,99.0387,42.8938,353.6928,-0.021397,-0.00413499,0.0,0 STARLINK-4631,1 53786U 22111P   22363.58334491 -.00413499  00000-0 -21397-1 0  9994,2 53786  53.2168  99.0387 0001771  42.8938 353.6928 15.17748150  1301,6890.785,94.877,513.87,511.43,0.0
53786.0,STARLINK-4631,PAYLOAD,2022-12-30 00:00:00,15.17383354,0.0001789,53.2172,97.1423,41.2444,112.9439,-0.02278,-0.00434367,0.0,0 STARLINK-4631,1 53786U 22111P   22364.00001157 -.00434367  00000-0 -22780-1 0  9996,2 53786  53.2172  97.1423 0001789  41.2444 112.9439 15.17383354 17042,6891.889,94.9,514.987,512.521,0.0
53786.0,STARLINK-4631,PAYLOAD,2022-12-30 14:00:01,15.16851334,0.0001735,53.2171,94.4908,46.8967,54.9852,-0.023136,-0.00434445,0.0,0 STARLINK-4631,1 53786U 22111P   22364.58334491 -.00434445  00000-0 -23136-1 0  9992,2 53786  53.2171  94.4908 0001735  46.8967  54.9852 15.16851334  1304,6893.501,94.933,516.562,514.17,0.0
